NORAD_CAT_ID,OBJECT_NAME,OBJECT_TYPE,EPOCH,MEAN_MOTION,ECCENTRICITY,INCLINATION,RA_OF_ASC_NODE,ARG_OF_PERICENTER,MEAN_ANOMALY,BSTAR,MEAN_MOTION_DOT,MEAN_MOTION_DDOT,TLE_LINE0,TLE_LINE1,TLE_LINE2,SEMIMAJOR_AXIS,PERIOD,APOGEE,PERIGEE,DECAYED
52276.0,STARLINK-3778,PAYLOAD,2023-05-21 01:31:35,15.0885946,0.0001186,53.2186,24.354,93.3794,266.7334,0.00022775,3.341e-05,0.0,0 STARLINK-3778,1 52276U 22041R   23141.06360113  .00003341  00000-0  22775-3 0  9999,2 52276  53.2186  24.3540 0001186  93.3794 266.7334 15.08859460 61057,6917.821,95.436,540.506,538.865,0.0
52276.0,STARLINK-3778,PAYLOAD,2023-05-21 15:50:05,15.08835609,0.0001482,53.2174,21.6786,87.3001,272.816,-7.1007e-05,-1.418e-05,0.0,0 STARLINK-3778,1 52276U 22041R   23141.65978656 -.00001418  00000-0 -71007-4 0  9999,2 52276  53.2174  21.6786 0001482  87.3001 272.8160 15.08835609 61143,6917.894,95.438,540.784,538.734,0.0
52276.0,STARLINK-3778,PAYLOAD,2023-05-21 22:11:37,15.08828385,0.0001255,53.2172,20.488,91.3501,268.7635,-0.00019122,-3.329e-05,0.0,0 STARLINK-3778,1 52276U 22041R   23141.92474484 -.00003329  00000-0 -19122-3 0  9991,2 52276  53.2172  20.4880 0001255  91.3501 268.7635 15.08828385 59962,6917.916,95.438,540.649,538.913,0.0
52276.0,STARLINK-3778,PAYLOAD,2023-05-22 09:19:19,15.08833383,0.0001333,53.2187,18.4052,94.2884,265.8261,-6e-05,-1.242e-05,0.0,0 STARLINK-3778,1 52276U 22041R   23142.38842584 -.00001242  00000-0 -60000-4 0  9996,2 52276  53.2187  18.4052 0001333  94.2884 265.8261 15.08833383 60036,6917.901,95.438,540.688,538.843,0.0
52276.0,STARLINK-3778,PAYLOAD,2023-05-22 18:51:38,15.08847221,9.81e-05,53.2184,16.6222,85.6636,274.4468,8.9813e-05,1.142e-05,0.0,0 STARLINK-3778,1 52276U 22041R   23142.78585947  .00001142  00000-0  89813-4 0  9997,2 52276  53.2184  16.6222 0000981  85.6636 274.4468 15.08847221 60096,6917.858,95.437,540.402,539.045,0.0
52276.0,STARLINK-3778,PAYLOAD,2023-05-23 01:13:10,15.08855422,0.0001032,53.2179,15.4318,88.729,271.3821,0.00023403,3.44e-05,0.0,0 STARLINK-3778,1 52276U 22041R   23143.05081508  .00003440  00000-0  23403-3 0  9997,2 52276  53.2179  15.4318 0001032  88.7290 271.3821 15.08855422 61352,6917.833,95.437,540.412,538.984,0.0
52276.0,STARLINK-3778,PAYLOAD,2023-05-23 21:53:12,15.08842378,9.36e-05,53.2189,11.5666,83.3313,276.7786,0.00027749,4.132e-05,0.0,0 STARLINK-3778,1 52276U 22041R   23143.91194456  .00004132  00000-0  27749-3 0  9995,2 52276  53.2189  11.5666 0000936  83.3313 276.7786 15.08842378 60269,6917.873,95.437,540.386,539.091,0.0
52276.0,STARLINK-3778,PAYLOAD,2023-05-24 15:22:26,15.08838653,0.0001089,53.217,8.2963,87.5418,272.5699,-3.2168e-05,-8e-06,0.0,0 STARLINK-3778,1 52276U 22041R   23144.64058530 -.00000800  00000-0 -32168-4 0  9990,2 52276  53.2170   8.2963 0001089  87.5418 272.5699 15.08838653 61599,6917.885,95.438,540.503,538.996,0.0
52276.0,STARLINK-3778,PAYLOAD,2023-05-25 18:24:00,15.08839212,0.0001112,53.2185,3.2449,88.2669,271.8451,8.2044e-05,1.018e-05,0.0,0 STARLINK-3778,1 52276U 22041R   23145.76666724  .00001018  00000-0  82044-4 0  9992,2 52276  53.2185   3.2449 0001112  88.2669 271.8451 15.08839212 61761,6917.883,95.438,540.517,538.979,0.0
52276.0,STARLINK-3778,PAYLOAD,2023-05-25 19:59:23,15.08840434,0.0001103,53.2192,2.9477,89.8554,270.2564,0.00010219,1.339e-05,0.0,0 STARLINK-3778,1 52276U 22041R   23145.83290674  .00001339  00000-0  10219-3 0  9997,2 52276  53.2192   2.9477 0001103  89.8554 270.2564 15.08840434 60558,6917.879,95.438,540.507,538.981,0.0
52276.0,STARLINK-3778,PAYLOAD,2023-05-26 00:45:32,15.08845845,0.0001062,53.2185,2.0547,87.4316,272.6798,0.00014107,1.958e-05,0.0,0 STARLINK-3778,1 52276U 22041R   23146.03162198  .00001958  00000-0  14107-3 0  9996,2 52276  53.2185   2.0547 0001062  87.4316 272.6798 15.08845845 61808,6917.863,95.437,540.462,538.993,0.0
52276.0,STARLINK-3778,PAYLOAD,2023-05-26 18:14:47,15.08834993,0.0001065,53.2177,358.7783,79.1843,280.9269,7.6712e-05,9.33e-06,0.0,0 STARLINK-3778,1 52276U 22041R   23146.76027280  .00000933  00000-0  76712-4 0  9991,2 52276  53.2177 358.7783 0001065  79.1843 280.9269 15.08834993 61917,6917.896,95.438,540.497,539.024,0.0
52276.0,STARLINK-3778,PAYLOAD,2023-05-26 21:25:33,15.08836674,0.0001008,53.2174,358.1854,80.9494,279.1612,8.1037e-05,1.002e-05,0.0,0 STARLINK-3778,1 52276U 22041R   23146.89275160  .00001002  00000-0  81037-4 0  9991,2 52276  53.2174 358.1854 0001008  80.9494 279.1612 15.08836674 60713,6917.891,95.438,540.453,539.058,0.0
52276.0,STARLINK-3778,PAYLOAD,2023-05-27 06:57:52,15.08842219,0.0001106,53.2182,356.3996,69.2851,290.8259,6.2773e-05,7.11e-06,0.0,0 STARLINK-3778,1 52276U 22041R   23147.29018832  .00000711  00000-0  62773-4 0  9999,2 52276  53.2182 356.3996 0001106  69.2851 290.8259 15.08842219 61995,6917.874,95.437,540.504,538.973,0.0
52276.0,STARLINK-3778,PAYLOAD,2023-05-27 21:16:21,15.08826139,0.0001235,53.219,353.7236,77.7925,282.3206,0.00025918,3.838e-05,0.0,0 STARLINK-3778,1 52276U 22041R   23147.88635550  .00003838  00000-0  25918-3 0  9998,2 52276  53.2190 353.7236 0001235  77.7925 282.3206 15.08826139 60867,6917.923,95.438,540.642,538.933,0.0
52276.0,STARLINK-3778,PAYLOAD,2023-05-28 21:07:07,15.08847449,0.0001014,53.2178,349.2657,84.8886,275.2222,0.00010126,1.324e-05,0.0,0 STARLINK-3778,1 52276U 22041R   23148.87994555  .00001324  00000-0  10126-3 0  9994,2 52276  53.2178 349.2657 0001014  84.8886 275.2222 15.08847449 62239,6917.858,95.437,540.424,539.021,0.0
52276.0,STARLINK-3778,PAYLOAD,2023-05-29 13:00:58,15.08844087,6.43e-05,53.2181,346.2932,123.4318,236.6735,-5.5319e-05,-1.168e-05,0.0,0 STARLINK-3778,1 52276U 22041R   23149.54234807 -.00001168  00000-0 -55319-4 0  9998,2 52276  53.2181 346.2932 0000643 123.4318 236.6735 15.08844087 61114,6917.868,95.437,540.178,539.288,0.0
52276.0,STARLINK-3778,PAYLOAD,2023-05-29 16:11:45,15.08834732,9.3e-05,53.2175,345.6976,82.7034,277.4063,3.4784e-05,2.66e-06,0.0,0 STARLINK-3778,1 52276U 22041R   23149.67483500  .00000266  00000-0  34784-4 0  9997,2 52276  53.2175 345.6976 0000930  82.7034 277.4063 15.08834732 62359,6917.896,95.438,540.405,539.118,0.0
52276.0,STARLINK-3778,PAYLOAD,2023-05-29 19:22:32,15.08827576,0.0001004,53.2176,345.1031,83.4946,276.6161,0.00014586,2.034e-05,0.0,0 STARLINK-3778,1 52276U 22041R   23149.80731836  .00002034  00000-0  14586-3 0  9992,2 52276  53.2176 345.1031 0001004  83.4946 276.6161 15.08827576 61155,6917.918,95.438,540.478,539.089,0.0
52276.0,STARLINK-3778,PAYLOAD,2023-05-29 22:33:18,15.08840184,0.0001028,53.2177,344.5076,82.8878,277.2231,3.8847e-05,3.31e-06,0.0,0 STARLINK-3778,1 52276U 22041R   23149.93979194  .00000331  00000-0  38847-4 0  9992,2 52276  53.2177 344.5076 0001028  82.8878 277.2231 15.08840184 61178,6917.88,95.438,540.456,539.034,0.0
52276.0,STARLINK-3778,PAYLOAD,2023-05-30 19:13:18,15.08849833,0.0001022,53.2175,340.6409,83.2252,276.8856,6.0385e-05,6.74e-06,0.0,0 STARLINK-3778,1 52276U 22041R   23150.80090474  .00000674  00000-0  60385-4 0  9997,2 52276  53.2175 340.6409 0001022  83.2252 276.8856 15.08849833 62526,6917.85,95.437,540.422,539.008,0.0
52276.0,STARLINK-3778,PAYLOAD,2023-05-31 19:04:05,15.0884508,0.0001029,53.2176,336.1806,79.8052,280.3057,0.00011544,1.55e-05,0.0,0 STARLINK-3778,1 52276U 22041R   23151.79450538  .00001550  00000-0  11544-3 0  9993,2 52276  53.2176 336.1806 0001029  79.8052 280.3057 15.08845080 62673,6917.865,95.437,540.442,539.018,0.0
52276.0,STARLINK-3778,PAYLOAD,2023-05-31 22:14:51,15.08846256,0.0001037,53.2176,335.5859,79.69,280.4209,0.00012279,1.667e-05,0.0,0 STARLINK-3778,1 52276U 22041R   23151.92698420  .00001667  00000-0  12279-3 0  9997,2 52276  53.2176 335.5859 0001037  79.6900 280.4209 15.08846256 61476,6917.861,95.437,540.444,539.009,0.0
52276.0,STARLINK-3778,PAYLOAD,2023-06-02 10:48:44,15.08837184,9.95e-05,53.2167,328.7489,83.9981,276.1125,-2.1726e-05,-6.33e-06,0.0,0 STARLINK-3778,1 52276U 22041R   23153.45051565 -.00000633  00000-0 -21726-4 0  9992,2 52276  53.2167 328.7489 0000995  83.9981 276.1125 15.08837184 62928,6917.889,95.438,540.442,539.066,0.0
52276.0,STARLINK-3778,PAYLOAD,2023-06-02 12:24:07,15.08834489,0.0001002,53.2169,328.451,84.7632,275.3474,-2.9761e-05,-7.61e-06,0.0,0 STARLINK-3778,1 52276U 22041R   23153.51675808 -.00000761  00000-0 -29761-4 0  9990,2 52276  53.2169 328.4510 0001002  84.7632 275.3474 15.08834489 61713,6917.897,95.438,540.455,539.069,0.0
52276.0,STARLINK-3778,PAYLOAD,2023-06-02 18:45:40,15.08818175,0.0001107,53.2172,327.2619,83.93,276.1818,0.00030953,4.639e-05,0.0,0 STARLINK-3778,1 52276U 22041R   23153.78171890  .00004639  00000-0  30953-3 0  9991,2 52276  53.2172 327.2619 0001107  83.9300 276.1818 15.08818175 62977,6917.947,95.439,540.578,539.046,0.0
52276.0,STARLINK-3778,PAYLOAD,2023-06-03 10:39:31,15.08832636,9.39e-05,53.2177,324.2882,92.7734,267.3366,8.4366e-05,1.055e-05,0.0,0 STARLINK-3778,1 52276U 22041R   23154.44411817  .00001055  00000-0  84366-4 0  9998,2 52276  53.2177 324.2882 0000939  92.7734 267.3366 15.08832636 63072,6917.903,95.438,540.417,539.118,0.0
52276.0,STARLINK-3778,PAYLOAD,2023-06-03 20:11:50,15.08839024,9.7e-05,53.2175,322.5038,93.7665,266.3438,8.0307e-05,9.91e-06,0.0,0 STARLINK-3778,1 52276U 22041R   23154.84155613  .00000991  00000-0  80307-4 0  9990,2 52276  53.2175 322.5038 0000970  93.7665 266.3438 15.08839024 61911,6917.883,95.438,540.419,539.077,0.0
52276.0,STARLINK-3778,PAYLOAD,2023-06-03 23:22:36,15.0884337,9.64e-05,53.2174,321.9089,93.2547,266.8555,0.00011402,1.528e-05,0.0,0 STARLINK-3778,1 52276U 22041R   23154.97403297  .00001528  00000-0  11402-3 0  9994,2 52276  53.2174 321.9089 0000964  93.2547 266.8555 15.08843370 63158,6917.87,95.437,540.402,539.068,0.0
52276.0,STARLINK-3778,PAYLOAD,2023-06-04 10:30:19,15.08832358,7.01e-05,53.2179,319.8279,104.0902,256.0168,0.00011397,1.526e-05,0.0,0 STARLINK-3778,1 52276U 22041R   23155.43772093  .00001526  00000-0  11397-3 0  9990,2 52276  53.2179 319.8279 0000701 104.0902 256.0168 15.08832358 63228,6917.904,95.438,540.254,539.284,0.0
